[{"OBJECT_NAME":"STARLINK-5867","OBJECT_ID":"2023-037E","EPOCH":"2026-01-13T12:56:15.011232","MEAN_MOTION":14.98327209,"ECCENTRICITY":0.0003076,"INCLINATION":69.9999,"RA_OF_ASC_NODE":83.6128,"ARG_OF_PERICENTER":269.1256,"MEAN_ANOMALY":90.9551,"EPHEMERIS_TYPE":0,"CLASSIFICATION_TYPE":"U","NORAD_CAT_ID":55918,"ELEMENT_SET_NO":999,"REV_AT_EPOCH":15522,"BSTAR":-8.5553395e-5,"MEAN_MOTION_DOT":-1.114e-5,"MEAN_MOTION_DDOT":0},{"OBJECT_NAME":"STARLINK-5871","OBJECT_ID":"2023-037F","EPOCH":"2026-01-13T12:44:27.623328","MEAN_MOTION":14.98327828,"ECCENTRICITY":0.00031678,"INCLINATION":70,"RA_OF_ASC_NODE":83.5838,"ARG_OF_PERICENTER":270.027,"MEAN_ANOMALY":90.0526,"EPHEMERIS_TYPE":0,"CLASSIFICATION_TYPE":"U","NORAD_CAT_ID":55919,"ELEMENT_SET_NO":999,"REV_AT_EPOCH":15522,"BSTAR":-1.0718579e-5,"MEAN_MOTION_DOT":-2.21e-6,"MEAN_MOTION_DDOT":0},{"OBJECT_NAME":"STARLINK-5862","OBJECT_ID":"2023-037G","EPOCH":"2026-01-13T12:49:54.911712","MEAN_MOTION":14.98320559,"ECCENTRICITY":0.00031614,"INCLINATION":70.0002,"RA_OF_ASC_NODE":63.7221,"ARG_OF_PERICENTER":274.0874,"MEAN_ANOMALY":85.9923,"EPHEMERIS_TYPE":0,"CLASSIFICATION_TYPE":"U","NORAD_CAT_ID":55920,"ELEMENT_SET_NO":999,"REV_AT_EPOCH":15571,"BSTAR":-9.1647597e-5,"MEAN_MOTION_DOT":-1.186e-5,"MEAN_MOTION_DDOT":0},{"OBJECT_NAME":"STARLINK-5861","OBJECT_ID":"2023-037H","EPOCH":"2026-01-13T12:20:10.837248","MEAN_MOTION":14.98331742,"ECCENTRICITY":0.00028086,"INCLINATION":70.0007,"RA_OF_ASC_NODE":83.5259,"ARG_OF_PERICENTER":257.7218,"MEAN_ANOMALY":102.3626,"EPHEMERIS_TYPE":0,"CLASSIFICATION_TYPE":"U","NORAD_CAT_ID":55921,"ELEMENT_SET_NO":999,"REV_AT_EPOCH":15522,"BSTAR":-0.00013658309,"MEAN_MOTION_DOT":-1.722e-5,"MEAN_MOTION_DDOT":0},{"OBJECT_NAME":"STARLINK-5863","OBJECT_ID":"2023-037J","EPOCH":"2026-01-13T12:26:11.454432","MEAN_MOTION":14.98328465,"ECCENTRICITY":0.00030444,"INCLINATION":70.0001,"RA_OF_ASC_NODE":83.5394,"ARG_OF_PERICENTER":266.9601,"MEAN_ANOMALY":93.121,"EPHEMERIS_TYPE":0,"CLASSIFICATION_TYPE":"U","NORAD_CAT_ID":55922,"ELEMENT_SET_NO":999,"REV_AT_EPOCH":15522,"BSTAR":-5.5681191e-5,"MEAN_MOTION_DOT":-7.57e-6,"MEAN_MOTION_DDOT":0},{"OBJECT_NAME":"STARLINK-5854","OBJECT_ID":"2023-037K","EPOCH":"2026-01-13T12:32:12.140736","MEAN_MOTION":14.98327623,"ECCENTRICITY":0.00030882,"INCLINATION":69.9999,"RA_OF_ASC_NODE":83.5539,"ARG_OF_PERICENTER":267.9137,"MEAN_ANOMALY":92.1669,"EPHEMERIS_TYPE":0,"CLASSIFICATION_TYPE":"U","NORAD_CAT_ID":55923,"ELEMENT_SET_NO":999,"REV_AT_EPOCH":15522,"BSTAR":-3.7994166e-5,"MEAN_MOTION_DOT":-5.46e-6,"MEAN_MOTION_DDOT":0},{"OBJECT_NAME":"STARLINK-5849","OBJECT_ID":"2023-037L","EPOCH":"2026-01-13T12:43:53.924736","MEAN_MOTION":14.98328708,"ECCENTRICITY":0.00032171,"INCLINATION":70.0003,"RA_OF_ASC_NODE":63.7046,"ARG_OF_PERICENTER":271.2771,"MEAN_ANOMALY":88.802,"EPHEMERIS_TYPE":0,"CLASSIFICATION_TYPE":"U","NORAD_CAT_ID":55924,"ELEMENT_SET_NO":999,"REV_AT_EPOCH":15571,"BSTAR":-3.7439733e-5,"MEAN_MOTION_DOT":-5.4e-6,"MEAN_MOTION_DDOT":0},{"OBJECT_NAME":"STARLINK-5922","OBJECT_ID":"2023-037M","EPOCH":"2026-01-13T12:14:11.079744","MEAN_MOTION":14.98320104,"ECCENTRICITY":0.00028256,"INCLINATION":70.0009,"RA_OF_ASC_NODE":83.5113,"ARG_OF_PERICENTER":266.1949,"MEAN_ANOMALY":93.8887,"EPHEMERIS_TYPE":0,"CLASSIFICATION_TYPE":"U","NORAD_CAT_ID":55925,"ELEMENT_SET_NO":999,"REV_AT_EPOCH":15522,"BSTAR":-0.00016979916,"MEAN_MOTION_DOT":-2.118e-5,"MEAN_MOTION_DDOT":0},{"OBJECT_NAME":"STARLINK-5921","OBJECT_ID":"2023-037N","EPOCH":"2026-01-13T12:31:54.033888","MEAN_MOTION":14.98315212,"ECCENTRICITY":0.00030186,"INCLINATION":70.0012,"RA_OF_ASC_NODE":63.6774,"ARG_OF_PERICENTER":270.2087,"MEAN_ANOMALY":89.8726,"EPHEMERIS_TYPE":0,"CLASSIFICATION_TYPE":"U","NORAD_CAT_ID":55926,"ELEMENT_SET_NO":999,"REV_AT_EPOCH":15571,"BSTAR":-0.00013222125,"MEAN_MOTION_DOT":-1.67e-5,"MEAN_MOTION_DDOT":0},{"OBJECT_NAME":"STARLINK-5919","OBJECT_ID":"2023-037P","EPOCH":"2026-01-13T15:12:54.001440","MEAN_MOTION":14.9968259,"ECCENTRICITY":0.00047857,"INCLINATION":70.001,"RA_OF_ASC_NODE":83.1425,"ARG_OF_PERICENTER":247.3056,"MEAN_ANOMALY":112.7598,"EPHEMERIS_TYPE":0,"CLASSIFICATION_TYPE":"U","NORAD_CAT_ID":55927,"ELEMENT_SET_NO":999,"REV_AT_EPOCH":15524,"BSTAR":0.014773604,"MEAN_MOTION_DOT":0.00187451,"MEAN_MOTION_DDOT":0},{"OBJECT_NAME":"STARLINK-5930","OBJECT_ID":"2023-037Q","EPOCH":"2026-01-13T13:32:16.230336","MEAN_MOTION":14.98329509,"ECCENTRICITY":0.00027894,"INCLINATION":70.0003,"RA_OF_ASC_NODE":83.2982,"ARG_OF_PERICENTER":273.0929,"MEAN_ANOMALY":86.991,"EPHEMERIS_TYPE":0,"CLASSIFICATION_TYPE":"U","NORAD_CAT_ID":55928,"ELEMENT_SET_NO":999,"REV_AT_EPOCH":15523,"BSTAR":0.00012989356,"MEAN_MOTION_DOT":1.457e-5,"MEAN_MOTION_DDOT":0},{"OBJECT_NAME":"STARLINK-5896","OBJECT_ID":"2023-037S","EPOCH":"2026-01-14T00:00:02.000160","MEAN_MOTION":14.98296799,"ECCENTRICITY":0.00030243,"INCLINATION":70.0015,"RA_OF_ASC_NODE":62.2968,"ARG_OF_PERICENTER":270.6684,"MEAN_ANOMALY":304.049,"EPHEMERIS_TYPE":0,"CLASSIFICATION_TYPE":"U","NORAD_CAT_ID":55930,"ELEMENT_SET_NO":999,"REV_AT_EPOCH":577,"BSTAR":0.0048176095,"MEAN_MOTION_DOT":0.00057817,"MEAN_MOTION_DDOT":0},{"OBJECT_NAME":"STARLINK-5897","OBJECT_ID":"2023-037T","EPOCH":"2026-01-13T13:26:14.454528","MEAN_MOTION":14.98338008,"ECCENTRICITY":0.00029596,"INCLINATION":70.0003,"RA_OF_ASC_NODE":83.2833,"ARG_OF_PERICENTER":267.7607,"MEAN_ANOMALY":92.3213,"EPHEMERIS_TYPE":0,"CLASSIFICATION_TYPE":"U","NORAD_CAT_ID":55931,"ELEMENT_SET_NO":999,"REV_AT_EPOCH":15523,"BSTAR":6.7200944e-5,"MEAN_MOTION_DOT":7.09e-6,"MEAN_MOTION_DDOT":0},{"OBJECT_NAME":"STARLINK-5848","OBJECT_ID":"2023-037U","EPOCH":"2026-01-13T12:25:31.406304","MEAN_MOTION":14.98328625,"ECCENTRICITY":0.00028109,"INCLINATION":69.9996,"RA_OF_ASC_NODE":43.3743,"ARG_OF_PERICENTER":274.0575,"MEAN_ANOMALY":86.0263,"EPHEMERIS_TYPE":0,"CLASSIFICATION_TYPE":"U","NORAD_CAT_ID":55932,"ELEMENT_SET_NO":999,"REV_AT_EPOCH":15621,"BSTAR":7.6443381e-5,"MEAN_MOTION_DOT":8.19e-6,"MEAN_MOTION_DDOT":0},{"OBJECT_NAME":"STARLINK-5852","OBJECT_ID":"2023-037V","EPOCH":"2026-01-13T12:25:52.279680","MEAN_MOTION":14.98326541,"ECCENTRICITY":0.00032062,"INCLINATION":70.0002,"RA_OF_ASC_NODE":63.6645,"ARG_OF_PERICENTER":268.8945,"MEAN_ANOMALY":91.1847,"EPHEMERIS_TYPE":0,"CLASSIFICATION_TYPE":"U","NORAD_CAT_ID":55933,"ELEMENT_SET_NO":999,"REV_AT_EPOCH":15571,"BSTAR":-5.5517364e-5,"MEAN_MOTION_DOT":-7.55e-6,"MEAN_MOTION_DDOT":0},{"OBJECT_NAME":"STARLINK-5927","OBJECT_ID":"2023-037W","EPOCH":"2026-01-13T13:28:06.236256","MEAN_MOTION":14.96720309,"ECCENTRICITY":0.00121189,"INCLINATION":69.9992,"RA_OF_ASC_NODE":63.4092,"ARG_OF_PERICENTER":220.4107,"MEAN_ANOMALY":139.6153,"EPHEMERIS_TYPE":0,"CLASSIFICATION_TYPE":"U","NORAD_CAT_ID":55934,"ELEMENT_SET_NO":999,"REV_AT_EPOCH":15572,"BSTAR":-0.018656824,"MEAN_MOTION_DOT":-0.00207808,"MEAN_MOTION_DDOT":0},{"OBJECT_NAME":"STARLINK-5920","OBJECT_ID":"2023-037X","EPOCH":"2026-01-13T12:19:51.321216","MEAN_MOTION":14.98330848,"ECCENTRICITY":0.00030035,"INCLINATION":70.0002,"RA_OF_ASC_NODE":63.6473,"ARG_OF_PERICENTER":270.2299,"MEAN_ANOMALY":89.8516,"EPHEMERIS_TYPE":0,"CLASSIFICATION_TYPE":"U","NORAD_CAT_ID":55935,"ELEMENT_SET_NO":999,"REV_AT_EPOCH":15571,"BSTAR":-4.0628839e-5,"MEAN_MOTION_DOT":-5.78e-6,"MEAN_MOTION_DDOT":0},{"OBJECT_NAME":"STARLINK-5882","OBJECT_ID":"2023-037Y","EPOCH":"2026-01-13T12:31:30.980640","MEAN_MOTION":14.98333692,"ECCENTRICITY":0.00030098,"INCLINATION":69.9995,"RA_OF_ASC_NODE":43.3883,"ARG_OF_PERICENTER":270.9032,"MEAN_ANOMALY":89.1783,"EPHEMERIS_TYPE":0,"CLASSIFICATION_TYPE":"U","NORAD_CAT_ID":55936,"ELEMENT_SET_NO":999,"REV_AT_EPOCH":15621,"BSTAR":2.50856e-7,"MEAN_MOTION_DOT":-9.0e-7,"MEAN_MOTION_DDOT":0},{"OBJECT_NAME":"STARLINK-5913","OBJECT_ID":"2023-037Z","EPOCH":"2026-01-13T13:49:58.082016","MEAN_MOTION":14.98332526,"ECCENTRICITY":0.00029373,"INCLINATION":69.9999,"RA_OF_ASC_NODE":63.4635,"ARG_OF_PERICENTER":270.9385,"MEAN_ANOMALY":89.1437,"EPHEMERIS_TYPE":0,"CLASSIFICATION_TYPE":"U","NORAD_CAT_ID":55937,"ELEMENT_SET_NO":999,"REV_AT_EPOCH":15572,"BSTAR":0.00011110292,"MEAN_MOTION_DOT":1.233e-5,"MEAN_MOTION_DDOT":0},{"OBJECT_NAME":"STARLINK-5909","OBJECT_ID":"2023-037AA","EPOCH":"2026-01-13T12:07:51.031200","MEAN_MOTION":14.98324217,"ECCENTRICITY":0.00033755,"INCLINATION":69.9998,"RA_OF_ASC_NODE":63.6169,"ARG_OF_PERICENTER":274.1555,"MEAN_ANOMALY":85.9218,"EPHEMERIS_TYPE":0,"CLASSIFICATION_TYPE":"U","NORAD_CAT_ID":55938,"ELEMENT_SET_NO":999,"REV_AT_EPOCH":15571,"BSTAR":9.1216327e-5,"MEAN_MOTION_DOT":9.95e-6,"MEAN_MOTION_DDOT":0},{"OBJECT_NAME":"STARLINK-5918","OBJECT_ID":"2023-037AB","EPOCH":"2026-01-13T13:31:56.302176","MEAN_MOTION":14.98333645,"ECCENTRICITY":0.00030653,"INCLINATION":69.9999,"RA_OF_ASC_NODE":63.4187,"ARG_OF_PERICENTER":270.6411,"MEAN_ANOMALY":89.4397,"EPHEMERIS_TYPE":0,"CLASSIFICATION_TYPE":"U","NORAD_CAT_ID":55939,"ELEMENT_SET_NO":999,"REV_AT_EPOCH":15572,"BSTAR":-4.104617e-6,"MEAN_MOTION_DOT":-1.42e-6,"MEAN_MOTION_DDOT":0},{"OBJECT_NAME":"STARLINK-5864","OBJECT_ID":"2023-037AC","EPOCH":"2026-01-13T13:37:57.424800","MEAN_MOTION":14.98329973,"ECCENTRICITY":0.00030195,"INCLINATION":70,"RA_OF_ASC_NODE":63.4339,"ARG_OF_PERICENTER":270.5939,"MEAN_ANOMALY":89.4874,"EPHEMERIS_TYPE":0,"CLASSIFICATION_TYPE":"U","NORAD_CAT_ID":55940,"ELEMENT_SET_NO":999,"REV_AT_EPOCH":15572,"BSTAR":-1.9071351e-5,"MEAN_MOTION_DOT":-3.21e-6,"MEAN_MOTION_DDOT":0},{"OBJECT_NAME":"STARLINK-5914","OBJECT_ID":"2023-037AD","EPOCH":"2026-01-13T12:37:54.383232","MEAN_MOTION":14.9832895,"ECCENTRICITY":0.00031027,"INCLINATION":70.0004,"RA_OF_ASC_NODE":63.6915,"ARG_OF_PERICENTER":265.0625,"MEAN_ANOMALY":95.018,"EPHEMERIS_TYPE":0,"CLASSIFICATION_TYPE":"U","NORAD_CAT_ID":55941,"ELEMENT_SET_NO":999,"REV_AT_EPOCH":15571,"BSTAR":2.1203925e-5,"MEAN_MOTION_DOT":1.6e-6,"MEAN_MOTION_DDOT":0}]
